OBJECT_NAME,OBJECT_ID,EPOCH,MEAN_MOTION,ECCENTRICITY,INCLINATION,RA_OF_ASC_NODE,ARG_OF_PERICENTER,MEAN_ANOMALY,EPHEMERIS_TYPE,CLASSIFICATION_TYPE,NORAD_CAT_ID,ELEMENT_SET_NO,REV_AT_EPOCH,BSTAR,MEAN_MOTION_DOT,MEAN_MOTION_DDOT
YAOGAN-30 09C,2021-039C,2026-03-09T12:08:31.982208,15.02217537,.0003376,34.9946,278.0042,296.3595,63.6766,0,U,48425,999,26455,.29017E-3,.3875E-4,0
STARLINK-6287,2023-061AG,2026-03-09T08:35:57.848352,15.02534595,.0001425,43.0036,186.3692,267.5844,92.4835,0,U,56404,999,15685,.38842E-4,.321E-5,0
